NORAD_CAT_ID,OBJECT_NAME,OBJECT_TYPE,EPOCH,MEAN_MOTION,ECCENTRICITY,INCLINATION,RA_OF_ASC_NODE,ARG_OF_PERICENTER,MEAN_ANOMALY,BSTAR,MEAN_MOTION_DOT,MEAN_MOTION_DDOT,TLE_LINE0,TLE_LINE1,TLE_LINE2,SEMIMAJOR_AXIS,PERIOD,APOGEE,PERIGEE,DECAYED
53623.0,STARLINK-4573,PAYLOAD,2023-02-16 17:29:49,15.08837101,6.68e-05,53.217,208.2239,101.6215,258.4852,5.6719e-05,6.15e-06,0.0,0 STARLINK-4573,1 53623U 22104AM  23047.72904761  .00000615  00000-0  56719-4 0  9994,2 53623  53.2170 208.2239 0000668 101.6215 258.4852 15.08837101 27121,6917.889,95.438,540.216,539.292,0.0
53623.0,STARLINK-4573,PAYLOAD,2023-02-17 12:34:27,15.08843704,6.95e-05,53.2158,204.6544,102.6891,257.4179,-0.00021833,-3.761e-05,0.0,0 STARLINK-4573,1 53623U 22104AM  23048.52393147 -.00003761  00000-0 -21833-3 0  9998,2 53623  53.2158 204.6544 0000695 102.6891 257.4179 15.08843704 26561,6917.869,95.437,540.215,539.253,0.0
53623.0,STARLINK-4573,PAYLOAD,2023-02-17 18:55:59,15.08846078,9.33e-05,53.2187,203.4681,100.5248,259.5849,-0.00019412,-3.376e-05,0.0,0 STARLINK-4573,1 53623U 22104AM  23048.78888824 -.00003376  00000-0 -19412-3 0  9999,2 53623  53.2187 203.4681 0000933 100.5248 259.5849 15.08846078 27284,6917.862,95.437,540.372,539.081,0.0
53623.0,STARLINK-4573,PAYLOAD,2023-02-18 12:25:14,15.08830042,0.0001261,53.2188,200.1973,115.5481,244.5642,4.1229e-05,3.68e-06,0.0,0 STARLINK-4573,1 53623U 22104AM  23049.51753146  .00000368  00000-0  41229-4 0  9997,2 53623  53.2188 200.1973 0001261 115.5481 244.5642 15.08830042 27394,6917.911,95.438,540.648,538.903,0.0
53623.0,STARLINK-4573,PAYLOAD,2023-02-18 18:46:46,15.0883821,5.59e-05,53.2185,199.0065,105.2776,254.8278,7.6896e-05,9.36e-06,0.0,0 STARLINK-4573,1 53623U 22104AM  23049.78248671  .00000936  00000-0  76896-4 0  9997,2 53623  53.2185 199.0065 0000559 105.2776 254.8278 15.08838210 26754,6917.886,95.438,540.138,539.364,0.0
53623.0,STARLINK-4573,PAYLOAD,2023-02-19 13:51:24,15.08839761,0.0001127,53.2178,195.4384,111.2359,248.8754,0.00012177,1.651e-05,0.0,0 STARLINK-4573,1 53623U 22104AM  23050.57736681  .00001651  00000-0  12177-3 0  9995,2 53623  53.2178 195.4384 0001127 111.2359 248.8754 15.08839761 27559,6917.881,95.438,540.526,538.966,0.0
53623.0,STARLINK-4573,PAYLOAD,2023-02-19 18:37:33,15.08846476,0.0001028,53.2179,194.5468,106.909,253.2015,0.00016619,2.359e-05,0.0,0 STARLINK-4573,1 53623U 22104AM  23050.77608110  .00002359  00000-0  16619-3 0  9993,2 53623  53.2179 194.5468 0001028 106.9090 253.2015 15.08846476 26905,6917.861,95.437,540.437,539.014,0.0
53623.0,STARLINK-4573,PAYLOAD,2023-02-20 02:34:29,15.08839114,9.92e-05,53.2183,193.0595,92.7736,267.337,7.1383e-05,8.48e-06,0.0,0 STARLINK-4573,1 53623U 22104AM  23051.10728789  .00000848  00000-0  71383-4 0  9997,2 53623  53.2183 193.0595 0000992  92.7736 267.3370 15.08839114 26959,6917.883,95.438,540.434,539.062,0.0
53623.0,STARLINK-4573,PAYLOAD,2023-02-20 13:42:11,15.08871275,0.0001154,53.2172,190.979,103.7047,256.4073,-0.00037919,-6.323e-05,0.0,0 STARLINK-4573,1 53623U 22104AM  23051.57096608 -.00006323  00000-0 -37919-3 0  9998,2 53623  53.2172 190.9790 0001154 103.7047 256.4073 15.08871275 27706,6917.785,95.436,540.448,538.851,0.0
53623.0,STARLINK-4573,PAYLOAD,2023-02-21 15:08:22,15.08835984,0.0001004,53.2182,186.2217,93.4271,266.6836,-4.9387e-05,-1.074e-05,0.0,0 STARLINK-4573,1 53623U 22104AM  23052.63081445 -.00001074  00000-0 -49387-4 0  9990,2 53623  53.2182 186.2217 0001004  93.4271 266.6836 15.08835984 27186,6917.893,95.438,540.452,539.063,0.0
53623.0,STARLINK-4573,PAYLOAD,2023-02-22 11:48:22,15.08846705,8.49e-05,53.2178,182.3557,76.9223,283.1864,8.3647e-05,1.044e-05,0.0,0 STARLINK-4573,1 53623U 22104AM  23053.49192221  .00001044  00000-0  83647-4 0  9992,2 53623  53.2178 182.3557 0000849  76.9223 283.1864 15.08846705 27317,6917.86,95.437,540.312,539.138,0.0
53623.0,STARLINK-4573,PAYLOAD,2023-02-22 13:23:44,15.08844097,5.64e-05,53.2196,182.0563,89.8174,270.2882,0.00017616,2.517e-05,0.0,0 STARLINK-4573,1 53623U 22104AM  23053.55815958  .00002517  00000-0  17616-3 0  9996,2 53623  53.2196 182.0563 0000564  89.8174 270.2882 15.08844097 28009,6917.868,95.437,540.123,539.343,0.0
53623.0,STARLINK-4573,PAYLOAD,2023-02-23 11:39:08,15.08842171,2.9e-05,53.2204,177.8924,138.2267,221.8747,0.00010129,1.325e-05,0.0,0 STARLINK-4573,1 53623U 22104AM  23054.48551837  .00001325  00000-0  10129-3 0  9990,2 53623  53.2204 177.8924 0000290 138.2267 221.8747 15.08842171 28148,6917.874,95.437,539.939,539.538,0.0
53623.0,STARLINK-4573,PAYLOAD,2023-02-23 18:00:43,15.08820207,0.0001073,53.2174,176.7034,109.3343,250.7765,-4.2002e-05,-9.56e-06,0.0,0 STARLINK-4573,1 53623U 22104AM  23054.75049863 -.00000956  00000-0 -42002-4 0  9998,2 53623  53.2174 176.7034 0001073 109.3343 250.7765 15.08820207 27504,6917.941,95.439,540.548,539.064,0.0
53623.0,STARLINK-4573,PAYLOAD,2023-02-24 11:29:56,15.0884346,0.0001159,53.2179,173.4355,89.8399,270.2726,-6.2571e-05,-1.284e-05,0.0,0 STARLINK-4573,1 53623U 22104AM  23055.47912841 -.00001284  00000-0 -62571-4 0  9991,2 53623  53.2179 173.4355 0001159  89.8399 270.2726 15.08843460 28294,6917.87,95.437,540.537,538.933,0.0
53623.0,STARLINK-4573,PAYLOAD,2023-02-24 13:05:19,15.08845472,0.000137,53.2178,173.1345,114.1461,245.9674,-1.2724e-05,-4.9e-06,0.0,0 STARLINK-4573,1 53623U 22104AM  23055.54536377 -.00000490  00000-0 -12724-4 0  9998,2 53623  53.2178 173.1345 0001370 114.1461 245.9674 15.08845472 27628,6917.864,95.437,540.676,538.781,0.0
53623.0,STARLINK-4573,PAYLOAD,2023-02-24 17:51:27,15.08859615,0.0001123,53.2174,172.244,97.5367,262.5753,2.8626e-05,1.68e-06,0.0,0 STARLINK-4573,1 53623U 22104AM  23055.74407217  .00000168  00000-0  28626-4 0  9998,2 53623  53.2174 172.2440 0001123  97.5367 262.5753 15.08859615 27655,6917.82,95.436,540.462,538.909,0.0
53623.0,STARLINK-4573,PAYLOAD,2023-02-25 06:34:35,15.08815968,0.0001857,53.2173,169.8635,96.1548,263.9656,7.9926e-05,9.83e-06,0.0,0 STARLINK-4573,1 53623U 22104AM  23056.27402080  .00000983  00000-0  79926-4 0  9994,2 53623  53.2173 169.8635 0001857  96.1548 263.9656 15.08815968 27731,6917.954,95.439,541.104,538.534,0.0
53623.0,STARLINK-4573,PAYLOAD,2023-02-25 12:56:08,15.08815125,0.000143,53.2176,168.6757,112.846,247.2684,5.3357e-05,5.61e-06,0.0,0 STARLINK-4573,1 53623U 22104AM  23056.53898480  .00000561  00000-0  53357-4 0  9998,2 53623  53.2176 168.6757 0001430 112.8460 247.2684 15.08815125 28453,6917.956,95.439,540.811,538.832,0.0
53623.0,STARLINK-4573,PAYLOAD,2023-02-25 17:42:17,15.08818193,0.0001541,53.2175,167.7831,115.4364,244.6787,7.5879e-05,9.19e-06,0.0,0 STARLINK-4573,1 53623U 22104AM  23056.73770467  .00000919  00000-0  75879-4 0  9994,2 53623  53.2175 167.7831 0001541 115.4364 244.6787 15.08818193 28486,6917.947,95.439,540.878,538.746,0.0
53623.0,STARLINK-4573,PAYLOAD,2023-02-26 00:03:49,15.0882952,0.0001476,53.2191,166.5952,103.9479,256.1678,0.00011498,1.542e-05,0.0,0 STARLINK-4573,1 53623U 22104AM  23057.00265913  .00001542  00000-0  11498-3 0  9999,2 53623  53.2191 166.5952 0001476 103.9479 256.1678 15.08829520 27843,6917.912,95.438,540.799,538.756,0.0
53623.0,STARLINK-4573,PAYLOAD,2023-02-26 09:36:07,15.08853382,9.72e-05,53.218,164.8103,111.0271,249.0825,2.6148e-05,1.29e-06,0.0,0 STARLINK-4573,1 53623U 22104AM  23057.40008629  .00000129  00000-0  26148-4 0  9991,2 53623  53.2180 164.8103 0000972 111.0271 249.0825 15.08853382 27905,6917.839,95.437,540.377,539.032,0.0
53623.0,STARLINK-4573,PAYLOAD,2023-02-26 11:11:30,15.08858653,0.0001336,53.2182,164.5135,107.1712,252.9427,9.5745e-05,1.237e-05,0.0,0 STARLINK-4573,1 53623U 22104AM  23057.46632136  .00001237  00000-0  95745-4 0  9993,2 53623  53.2182 164.5135 0001336 107.1712 252.9427 15.08858653 28593,6917.823,95.436,540.613,538.764,0.0
53623.0,STARLINK-4573,PAYLOAD,2023-02-26 15:57:38,15.08871948,0.0001124,53.2182,163.6207,116.457,243.6537,0.00018807,2.709e-05,0.0,0 STARLINK-4573,1 53623U 22104AM  23057.66502746  .00002709  00000-0  18807-3 0  9996,2 53623  53.2182 163.6207 0001124 116.4570 243.6537 15.08871948 27942,6917.783,95.436,540.425,538.87,0.0
53623.0,STARLINK-4573,PAYLOAD,2023-02-26 23:54:35,15.0885209,0.0001407,53.2189,162.1338,86.0471,274.0682,1.7411e-05,-1.1e-07,0.0,0 STARLINK-4573,1 53623U 22104AM  23057.99624355 -.00000011  00000-0  17411-4 0  9999,2 53623  53.2189 162.1338 0001407  86.0471 274.0682 15.08852090 27995,6917.843,95.437,540.682,538.735,0.0
53623.0,STARLINK-4573,PAYLOAD,2023-02-27 07:51:31,15.08838895,0.000218,53.2187,160.648,118.3209,241.8003,0.00021344,3.11e-05,0.0,0 STARLINK-4573,1 53623U 22104AM  23058.32745012  .00003110  00000-0  21344-3 0  9992,2 53623  53.2187 160.6480 0002180 118.3209 241.8003 15.08838895 28044,6917.884,95.438,541.257,538.241,0.0
53623.0,STARLINK-4573,PAYLOAD,2023-02-27 15:48:26,15.08854325,6.86e-05,53.2206,159.1603,101.3633,258.7436,0.00018446,2.65e-05,0.0,0 STARLINK-4573,1 53623U 22104AM  23058.65863969  .00002650  00000-0  18446-3 0  9997,2 53623  53.2206 159.1603 0000686 101.3633 258.7436 15.08854325 28096,6917.837,95.437,540.176,539.227,0.0
53623.0,STARLINK-4573,PAYLOAD,2023-02-27 18:59:11,15.08870781,0.0001035,53.2181,158.5667,94.9111,265.2,0.00037326,5.663e-05,0.0,0 STARLINK-4573,1 53623U 22104AM  23058.79110392  .00005663  00000-0  37326-3 0  9992,2 53623  53.2181 158.5667 0001035  94.9111 265.2000 15.08870781 28799,6917.786,95.436,540.367,538.935,0.0
53623.0,STARLINK-4573,PAYLOAD,2023-02-27 23:45:24,15.08814603,7.5e-05,53.2182,157.6744,123.5502,236.5562,-0.00016783,-2.956e-05,0.0,0 STARLINK-4573,1 53623U 22104AM  23058.98987211 -.00002956  00000-0 -16783-3 0  9993,2 53623  53.2182 157.6744 0000750 123.5502 236.5562 15.08814603 28146,6917.958,95.439,540.342,539.304,0.0
53623.0,STARLINK-4573,PAYLOAD,2023-02-28 12:28:27,15.0884404,0.0001263,53.2169,155.2975,101.4482,258.6652,-0.0001829,-3.198e-05,0.0,0 STARLINK-4573,1 53623U 22104AM  23059.51976808 -.00003198  00000-0 -18290-3 0  9997,2 53623  53.2169 155.2975 0001263 101.4482 258.6652 15.08844040 28900,6917.868,95.437,540.607,538.859,0.0
